ORBCOMM FM05            
1 25117U 97084F   25144.93236804  .00001186  00000+0  37117-3 0  9992
2 25117  45.0139 119.7031 0001087  18.5791 341.5100 14.45873143437243
ORBCOMM FM06            
1 25118U 97084G   25144.93252362  .00001132  00000+0  35519-3 0  9995
2 25118  45.0132 119.4657 0001329 328.7322  63.0717 14.46002533438163
ORBCOMM FM07            
1 25119U 97084H   25144.93977221  .00001142  00000+0  35800-3 0  9998
2 25119  45.0128 120.1997 0001706  40.8612 319.2368 14.45995705438156
ORBCOMM FM03            
1 25158U 98007B   25144.83310829  .00000927  00000+0  37108-3 0  9994
2 25158 107.9651  87.6261 0046762 289.9519  69.6587 14.34454324420696
ORBCOMM FM04            
1 25159U 98007C   25144.75164249  .00000870  00000+0  35016-3 0  9992
2 25159 107.9640  90.6639 0042516 287.5781  72.0717 14.34705437420862
ORBCOMM FM17            
1 25413U 98046A   25144.86851836  .00000668  00000+0  28124-3 0  9992
2 25413  44.9957   7.6545 0003046  86.9087 273.2109 14.35057167399827
ORBCOMM FM18            
1 25414U 98046B   25144.66833039  .00000948  00000+0  35365-3 0  9992
2 25414  44.9935 286.6249 0005793 171.3701 188.7247 14.38504463400866
ORBCOMM FM19            
1 25415U 98046C   25144.85119556  .00000954  00000+0  35695-3 0  9998
2 25415  44.9946 287.7196 0004515 168.7284 351.1078 14.38312403400846
